NORAD_CAT_ID,OBJECT_NAME,OBJECT_TYPE,EPOCH,MEAN_MOTION,ECCENTRICITY,INCLINATION,RA_OF_ASC_NODE,ARG_OF_PERICENTER,MEAN_ANOMALY,BSTAR,MEAN_MOTION_DOT,MEAN_MOTION_DDOT,TLE_LINE0,TLE_LINE1,TLE_LINE2,SEMIMAJOR_AXIS,PERIOD,APOGEE,PERIGEE,DECAYED
51111.0,STARLINK-3173,PAYLOAD,2023-12-19 04:04:35,15.08835369,0.0001423,53.2183,332.168,76.0994,284.0156,-5.6138e-05,-1.181e-05,0.0,0 STARLINK-3173,1 51111U 22005H   23353.16985397 -.00001181  00000-0 -56138-4 0  9992,2 51111  53.2183 332.1680 0001423  76.0994 284.0156 15.08835369107474,6917.895,95.438,540.744,538.775,0.0
51111.0,STARLINK-3173,PAYLOAD,2023-12-19 05:39:58,15.08835321,0.0001356,53.2183,331.872,82.8874,277.2272,-5.4595e-05,-1.157e-05,0.0,0 STARLINK-3173,1 51111U 22005H   23353.23609396 -.00001157  00000-0 -54595-4 0  9990,2 51111  53.2183 331.8720 0001356  82.8874 277.2272 15.08835321106371,6917.895,95.438,540.698,538.822,0.0
51111.0,STARLINK-3173,PAYLOAD,2023-12-20 03:55:22,15.0884456,0.0001325,53.2175,327.7151,98.2508,261.8635,-6.8505e-05,-1.378e-05,0.0,0 STARLINK-3173,1 51111U 22005H   23354.16345160 -.00001378  00000-0 -68505-4 0  9990,2 51111  53.2175 327.7151 0001325  98.2508 261.8635 15.08844560107621,6917.866,95.437,540.648,538.815,0.0
51111.0,STARLINK-3173,PAYLOAD,2023-12-21 03:46:08,15.08842788,0.0001307,53.2176,323.2561,98.673,261.441,0.00026561,3.942e-05,0.0,0 STARLINK-3173,1 51111U 22005H   23355.15704738  .00003942  00000-0  26561-3 0  9992,2 51111  53.2176 323.2561 0001307  98.6730 261.4410 15.08842788106669,6917.872,95.437,540.641,538.833,0.0
51111.0,STARLINK-3173,PAYLOAD,2023-12-22 03:36:56,15.08840178,0.000141,53.2167,318.798,92.3538,267.7616,5.3908e-05,5.7e-06,0.0,0 STARLINK-3173,1 51111U 22005H   23356.15065568  .00000570  00000-0  53908-4 0  9994,2 51111  53.2167 318.7980 0001410  92.3538 267.7616 15.08840178107923,6917.88,95.438,540.72,538.769,0.0
51111.0,STARLINK-3173,PAYLOAD,2023-12-22 05:12:19,15.08840632,0.0001465,53.217,318.4967,84.4814,275.6345,6.3676e-05,7.26e-06,0.0,0 STARLINK-3173,1 51111U 22005H   23356.21689586  .00000726  00000-0  63676-4 0  9999,2 51111  53.2170 318.4967 0001465  84.4814 275.6345 15.08840632106828,6917.878,95.438,540.757,538.73,0.0
51111.0,STARLINK-3173,PAYLOAD,2023-12-23 06:38:29,15.08846565,0.0001575,53.2176,313.7349,80.0468,280.0702,0.00022401,3.28e-05,0.0,0 STARLINK-3173,1 51111U 22005H   23357.27673299  .00003280  00000-0  22401-3 0  9998,2 51111  53.2176 313.7349 0001575  80.0468 280.0702 15.08846565108094,6917.86,95.437,540.815,538.636,0.0
51111.0,STARLINK-3173,PAYLOAD,2023-12-23 20:56:58,15.088324,0.000121,53.2171,311.0658,94.8141,265.2989,3.4332e-05,2.58e-06,0.0,0 STARLINK-3173,1 51111U 22005H   23357.87290285  .00000258  00000-0  34332-4 0  9993,2 51111  53.2171 311.0658 0001210  94.8141 265.2989 15.08832400107072,6917.904,95.438,540.606,538.932,0.0
51111.0,STARLINK-3173,PAYLOAD,2023-12-24 03:18:31,15.08844072,0.0001354,53.2167,309.8773,93.3265,266.7882,0.0002119,3.086e-05,0.0,0 STARLINK-3173,1 51111U 22005H   23358.13785951  .00003086  00000-0  21190-3 0  9991,2 51111  53.2167 309.8773 0001354  93.3265 266.7882 15.08844072108224,6917.868,95.437,540.67,538.796,0.0
51111.0,STARLINK-3173,PAYLOAD,2023-12-24 06:29:16,15.08849446,0.0001451,53.2161,309.2796,119.0379,241.0759,0.00034218,5.163e-05,0.0,0 STARLINK-3173,1 51111U 22005H   23358.27033514  .00005163  00000-0  34218-3 0  9990,2 51111  53.2161 309.2796 0001451 119.0379 241.0759 15.08849446107135,6917.852,95.437,540.72,538.713,0.0
51111.0,STARLINK-3173,PAYLOAD,2023-12-25 03:09:17,15.08854729,0.0001346,53.2175,305.4146,79.176,280.9384,0.00037176,5.636e-05,0.0,0 STARLINK-3173,1 51111U 22005H   23359.13145546  .00005636  00000-0  37176-3 0  9996,2 51111  53.2175 305.4146 0001346  79.1760 280.9384 15.08854729108373,6917.835,95.437,540.632,538.769,0.0
51111.0,STARLINK-3173,PAYLOAD,2023-12-25 06:20:03,15.08859599,0.0001372,53.2177,304.8155,95.3979,264.717,0.0004578,7.009e-05,0.0,0 STARLINK-3173,1 51111U 22005H   23359.26393175  .00007009  00000-0  45780-3 0  9999,2 51111  53.2177 304.8155 0001372  95.3979 264.7170 15.08859599107281,6917.82,95.436,540.635,538.736,0.0
51111.0,STARLINK-3173,PAYLOAD,2023-12-25 20:38:32,15.08839642,0.000151,53.2166,302.1429,92.7321,267.3844,3.2577e-05,2.31e-06,0.0,0 STARLINK-3173,1 51111U 22005H   23359.86009980  .00000231  00000-0  32577-4 0  9994,2 51111  53.2166 302.1429 0001510  92.7321 267.3844 15.08839642108487,6917.881,95.438,540.791,538.702,0.0
51111.0,STARLINK-3173,PAYLOAD,2023-12-26 06:10:51,15.08841845,0.0001539,53.2165,300.3578,103.1648,256.9516,0.00015867,2.238e-05,0.0,0 STARLINK-3173,1 51111U 22005H   23360.25753960  .00002238  00000-0  15867-3 0  9994,2 51111  53.2165 300.3578 0001539 103.1648 256.9516 15.08841845107433,6917.875,95.437,540.804,538.675,0.0
51111.0,STARLINK-3173,PAYLOAD,2023-12-27 01:15:29,15.08844676,0.0001623,53.2175,296.7886,106.2844,253.8327,0.00023257,3.416e-05,0.0,0 STARLINK-3173,1 51111U 22005H   23361.05242038  .00003416  00000-0  23257-3 0  9993,2 51111  53.2175 296.7886 0001623 106.2844 253.8327 15.08844676108667,6917.866,95.437,540.854,538.608,0.0
51111.0,STARLINK-3173,PAYLOAD,2023-12-27 20:20:06,15.08842684,0.0001552,53.2167,293.2203,98.9646,261.1521,0.00019119,2.756e-05,0.0,0 STARLINK-3173,1 51111U 22005H   23361.84730236  .00002756  00000-0  19119-3 0  9990,2 51111  53.2167 293.2203 0001552  98.9646 261.1521 15.08842684108789,6917.872,95.437,540.811,538.664,0.0
51111.0,STARLINK-3173,PAYLOAD,2023-12-28 05:52:25,15.08841319,0.0001633,53.2174,291.4381,107.1519,252.9652,9.7734e-05,1.268e-05,0.0,0 STARLINK-3173,1 51111U 22005H   23362.24474185  .00001268  00000-0  97734-4 0  9990,2 51111  53.2174 291.4381 0001633 107.1519 252.9652 15.08841319107737,6917.876,95.437,540.871,538.612,0.0
51111.0,STARLINK-3173,PAYLOAD,2023-12-29 02:32:26,15.08843121,0.0001834,53.2169,287.5702,66.0311,294.0873,3.7615e-05,3.11e-06,0.0,0 STARLINK-3173,1 51111U 22005H   23363.10586391  .00000311  00000-0  37615-4 0  9999,2 51111  53.2169 287.5702 0001834  66.0311 294.0873 15.08843121108972,6917.871,95.437,541.005,538.467,0.0
51111.0,STARLINK-3173,PAYLOAD,2023-12-29 05:43:12,15.0884513,0.0001706,53.2174,286.9753,76.6739,283.4443,6.3182e-05,7.18e-06,0.0,0 STARLINK-3173,1 51111U 22005H   23363.23834234  .00000718  00000-0  63182-4 0  9994,2 51111  53.2174 286.9753 0001706  76.6739 283.4443 15.08845130107882,6917.865,95.437,540.91,538.55,0.0
51111.0,STARLINK-3173,PAYLOAD,2023-12-30 03:58:37,15.08841235,0.0001704,53.2177,282.8129,68.6916,291.4258,0.00016191,2.29e-05,0.0,0 STARLINK-3173,1 51111U 22005H   23364.16570606  .00002290  00000-0  16191-3 0  9991,2 51111  53.2177 282.8129 0001704  68.6916 291.4258 15.08841235109138,6917.877,95.437,540.92,538.563,0.0
51111.0,STARLINK-3173,PAYLOAD,2023-12-30 21:27:51,15.08839946,0.0001605,53.2172,279.5435,82.7417,277.3757,4.8463e-06,-2.11e-06,0.0,0 STARLINK-3173,1 51111U 22005H   23364.89434706 -.00000211  00000-0  48463-5 0  9992,2 51111  53.2172 279.5435 0001605  82.7417 277.3757 15.08839946108131,6917.881,95.438,540.856,538.635,0.0
51111.0,STARLINK-3173,PAYLOAD,2023-12-31 22:54:02,15.08838582,0.0001431,53.2179,274.7836,101.3951,258.7202,-1.4191e-05,-5.14e-06,0.0,0 STARLINK-3173,1 51111U 22005H   23365.95419104 -.00000514  00000-0 -14191-4 0  9992,2 51111  53.2179 274.7836 0001431 101.3951 258.7202 15.08838582108298,6917.885,95.438,540.74,538.76,0.0
51111.0,STARLINK-3173,PAYLOAD,2024-01-01 03:40:11,15.08842654,0.0001426,53.2175,273.8918,98.6256,261.4897,2.9906e-05,1.88e-06,0.0,0 STARLINK-3173,1 51111U 22005H   24001.15290732  .00000188  00000-0  29906-4 0  9991,2 51111  53.2175 273.8918 0001426  98.6256 261.4897 15.08842654109438,6917.872,95.437,540.724,538.751,0.0
51111.0,STARLINK-3173,PAYLOAD,2024-01-01 22:44:48,15.08851176,0.0001432,53.2173,270.3242,98.7079,261.4075,0.00011191,1.494e-05,0.0,0 STARLINK-3173,1 51111U 22005H   24001.94777887  .00001494  00000-0  11191-3 0  9996,2 51111  53.2173 270.3242 0001432  98.7079 261.4075 15.08851176108446,6917.846,95.437,540.702,538.721,0.0
51111.0,STARLINK-3173,PAYLOAD,2024-01-02 03:30:57,15.08855518,0.0001434,53.2175,269.4316,97.5875,262.528,0.00014623,2.041e-05,0.0,0 STARLINK-3173,1 51111U 22005H   24002.14649412  .00002041  00000-0  14623-3 0  9993,2 51111  53.2175 269.4316 0001434  97.5875 262.5280 15.08855518109582,6917.833,95.437,540.69,538.706,0.0
51111.0,STARLINK-3173,PAYLOAD,2024-01-02 17:49:26,15.08842956,0.0001587,53.2192,266.751,95.7755,264.3418,3.5429e-05,2.76e-06,0.0,0 STARLINK-3173,1 51111U 22005H   24002.74266396  .00000276  00000-0  35429-4 0  9991,2 51111  53.2192 266.7510 0001587  95.7755 264.3418 15.08842956109678,6917.871,95.437,540.834,538.638,0.0
51111.0,STARLINK-3173,PAYLOAD,2024-01-02 22:35:35,15.0884628,0.0001946,53.2171,265.8595,140.6206,219.4927,7.5142e-05,9.08e-06,0.0,0 STARLINK-3173,1 51111U 22005H   24002.94137976  .00000908  00000-0  75142-4 0  9992,2 51111  53.2171 265.8595 0001946 140.6206 219.4927 15.08846280108598,6917.861,95.437,541.072,538.38,0.0
51111.0,STARLINK-3173,PAYLOAD,2024-01-03 22:26:22,15.08841175,0.0001283,53.2169,261.4073,87.7783,272.3356,-4.9406e-05,-1.074e-05,0.0,0 STARLINK-3173,1 51111U 22005H   24003.93498811 -.00001074  00000-0 -49406-4 0  9991,2 51111  53.2169 261.4073 0001283  87.7783 272.3356 15.08841175108742,6917.877,95.437,540.629,538.854,0.0
51111.0,STARLINK-3173,PAYLOAD,2024-01-04 03:12:32,15.08843569,0.0001253,53.2165,260.5133,96.1142,263.9992,-7.1926e-05,-1.433e-05,0.0,0 STARLINK-3173,1 51111U 22005H   24004.13370643 -.00001433  00000-0 -71926-4 0  9997,2 51111  53.2165 260.5133 0001253  96.1142 263.9992 15.08843569109882,6917.869,95.437,540.601,538.868,0.0
51111.0,STARLINK-3173,PAYLOAD,2024-01-04 22:17:09,15.08841032,0.0001187,53.2159,256.9462,92.9452,267.1676,9.0053e-05,1.146e-05,0.0,0 STARLINK-3173,1 51111U 22005H   24004.92858408  .00001146  00000-0  90053-4 0  9995,2 51111  53.2159 256.9462 0001187  92.9452 267.1676 15.08841032108891,6917.877,95.437,540.563,538.921,0.0
